SENTINEL-6              
1 46984U 20086A   24172.51084290 -.00000019  00000+0  18082-3 0  9994
2 46984  66.0392 204.3669 0007941 270.2490  89.7616 12.80929021167256
